STARLINK-2022           
1 47643U 21012Z   24153.46719791  .00000253  00000+0  35863-4 0  9997
2 47643  53.0545  72.6197 0001288  92.1423 267.9713 15.06386697182861
